GLOBALSTAR M084 [+]     
1 38040U 11080A   24049.14280979 -.00000099  00000+0  27359-4 0  9992
2 38040  52.0006  85.1257 0000664  96.4028 298.7665 12.62271096561699
GLOBALSTAR M080 [+]     
1 38041U 11080B   24049.03114610 -.00000095  00000+0  46229-4 0  9992
2 38041  52.0059  86.9031 0000659  79.3386 287.5234 12.62269164561666
GLOBALSTAR M082 [+]     
1 38042U 11080C   24048.76375987 -.00000105  00000+0 -68513-5 0  9992
2 38042  52.0087  43.1099 0000608 176.3156 355.3949 12.62265991562194
GLOBALSTAR M092 [+]     
1 38043U 11080D   24048.65310163 -.00000099  00000+0  29069-4 0  9999
2 38043  52.0081 133.8011 0000925 112.6134  34.6498 12.62276600560633
GLOBALSTAR M090 [+]     
1 38044U 11080E   24048.92832751 -.00000095  00000+0  46893-4 0  9992
2 38044  51.9902  37.0415 0000263 149.4096 291.4219 12.62266240562339
GLOBALSTAR M086 [+]     
1 38045U 11080F   24048.73738308 -.00000092  00000+0  67065-4 0  9996
2 38045  51.9914  38.1375 0000790 339.5156 192.5065 12.62267323562258
GLOBALSTAR M097 [+]     
1 39072U 13005A   24049.43850226 -.00000086  00000+0  97403-4 0  9990
2 39072  52.0059 310.0601 0000424  54.5928 305.4978 12.62260678509671
GLOBALSTAR M093 [+]     
1 39073U 13005B   24048.85768497 -.00000082  00000+0  12330-3 0  9995
2 39073  51.9822 305.9075 0000355  43.6528 316.4366 12.62261147509477
